start=new Date('2022-04-16T00:00:00.000Z').valueOf();
sats=[{"SITE":"AFETR","PERIOD":"95.593","OBJECT_NAME":"STARLINK-2682","SEMIMAJOR_AXIS":"6925.366","DECAY_DATE":null,"RCS_SIZE":"LARGE","TIME_SYSTEM":"UTC","REF_FRAME":"TEME","MEAN_MOTION_DDOT":"0.0000000000000","MEAN_MOTION_DOT":"0.00001700","CLASSIFICATION_TYPE":"U","APOAPSIS":"548.600","INCLINATION":"53.0552","EPOCH":"2022-04-15T16:16:00.331968","ECCENTRICITY":"0.00019770","ARG_OF_PERICENTER":"51.8517","TLE_LINE1":"1 48440U 21040N   22105.67778162  .00001700  00000-0  13302-3 0  9991","GP_ID":"201342701","OBJECT_TYPE":"PAYLOAD","NORAD_CAT_ID":"48440","MEAN_MOTION":"15.06394286","OBJECT_ID":"2021-040N","CENTER_NAME":"EARTH","ELEMENT_SET_NO":"999","MEAN_ELEMENT_THEORY":"SGP4","COUNTRY_CODE":"US","REV_AT_EPOCH":"5199","PERIAPSIS":"545.862","EPHEMERIS_TYPE":"0","LAUNCH_DATE":"2021-05-09","RA_OF_ASC_NODE":"94.2659","FILE":"3403567","TLE_LINE2":"2 48440  53.0552  94.2659 0001977  51.8517 308.2650 15.06394286 51990","MEAN_ANOMALY":"308.2650","BSTAR":"0.00013302000000"},{"PERIAPSIS":"545.819","EPHEMERIS_TYPE":"0","LAUNCH_DATE":"2021-05-09","COUNTRY_CODE":"US","MEAN_ELEMENT_THEORY":"SGP4","REV_AT_EPOCH":"5199","OBJECT_TYPE":"PAYLOAD","GP_ID":"201341449","MEAN_MOTION":"15.06408428","NORAD_CAT_ID":"48441","OBJECT_ID":"2021-040P","ELEMENT_SET_NO":"999","CENTER_NAME":"EARTH","TLE_LINE1":"1 48441U 21040P   22105.67408798  .00001904  00000-0  14668-3 0  9999","MEAN_ANOMALY":"300.7375","BSTAR":"0.00014668000000","FILE":"3403567","TLE_LINE2":"2 48441  53.0557  94.2856 0001977  59.3809 300.7375 15.06408428 51997","RA_OF_ASC_NODE":"94.2856","MEAN_MOTION_DOT":"0.00001904","MEAN_MOTION_DDOT":"0.0000000000000","DECAY_DATE":null,"RCS_SIZE":"LARGE","TIME_SYSTEM":"UTC","REF_FRAME":"TEME","SEMIMAJOR_AXIS":"6925.323","SITE":"AFETR","PERIOD":"95.592","OBJECT_NAME":"STARLINK-2702","ECCENTRICITY":"0.00019770","ARG_OF_PERICENTER":"59.3809","EPOCH":"2022-04-15T16:10:41.201472","INCLINATION":"53.0557","APOAPSIS":"548.557","CLASSIFICATION_TYPE":"U"},{"COUNTRY_CODE":"US","MEAN_ELEMENT_THEORY":"SGP4","REV_AT_EPOCH":"5199","PERIAPSIS":"546.120","LAUNCH_DATE":"2021-05-09","EPHEMERIS_TYPE":"0","TLE_LINE1":"1 48442U 21040Q   22105.67041410  .00001505  00000-0  11991-3 0  9997","GP_ID":"201341699","OBJECT_TYPE":"PAYLOAD","MEAN_MOTION":"15.06402327","NORAD_CAT_ID":"48442","OBJECT_ID":"2021-040Q","CENTER_NAME":"EARTH","ELEMENT_SET_NO":"999","FILE":"3403567","TLE_LINE2":"2 48442  53.0552  94.2793 0001569  57.5277 302.5864 15.06402327 51994","BSTAR":"0.00011991000000","MEAN_ANOMALY":"302.5864","RA_OF_ASC_NODE":"94.2793","RCS_SIZE":"LARGE","DECAY_DATE":null,"TIME_SYSTEM":"UTC","REF_FRAME":"TEME","MEAN_MOTION_DDOT":"0.0000000000000","MEAN_MOTION_DOT":"0.00001505","SITE":"AFETR","PERIOD":"95.592","OBJECT_NAME":"STARLINK-2644","SEMIMAJOR_AXIS":"6925.341","EPOCH":"2022-04-15T16:05:23.778240","ARG_OF_PERICENTER":"57.5277","ECCENTRICITY":"0.00015690","APOAPSIS":"548.293","CLASSIFICATION_TYPE":"U","INCLINATION":"53.0552"},{"COUNTRY_CODE":"US","MEAN_ELEMENT_THEORY":"SGP4","REV_AT_EPOCH":"5199","PERIAPSIS":"545.970","LAUNCH_DATE":"2021-05-09","EPHEMERIS_TYPE":"0","TLE_LINE1":"1 48443U 21040R   22105.66672393  .00001233  00000-0  10168-3 0  9990","GP_ID":"201342451","OBJECT_TYPE":"PAYLOAD","MEAN_MOTION":"15.06401869","NORAD_CAT_ID":"48443","OBJECT_ID":"2021-040R","CENTER_NAME":"EARTH","ELEMENT_SET_NO":"999","FILE":"3403567","TLE_LINE2":"2 48443  53.0562  94.3028 0001788  60.7565 299.3603 15.06401869 51991","MEAN_ANOMALY":"299.3603","BSTAR":"0.00010168000000","RA_OF_ASC_NODE":"94.3028","DECAY_DATE":null,"RCS_SIZE":"LARGE","TIME_SYSTEM":"UTC","REF_FRAME":"TEME","MEAN_MOTION_DOT":"0.00001233","MEAN_MOTION_DDOT":"0.0000000000000","SITE":"AFETR","PERIOD":"95.592","OBJECT_NAME":"STARLINK-2663","SEMIMAJOR_AXIS":"6925.343","EPOCH":"2022-04-15T16:00:04.947552","ECCENTRICITY":"0.00017880","ARG_OF_PERICENTER":"60.7565","APOAPSIS":"548.446","CLASSIFICATION_TYPE":"U","INCLINATION":"53.0562"},{"TLE_LINE1":"1 48444U 21040S   22105.66302962 -.00000470  00000-0 -12619-4 0  9991","CENTER_NAME":"EARTH","ELEMENT_SET_NO":"999","OBJECT_ID":"2021-040S","NORAD_CAT_ID":"48444","MEAN_MOTION":"15.06403751","OBJECT_TYPE":"PAYLOAD","GP_ID":"201342202","REV_AT_EPOCH":"5199","COUNTRY_CODE":"US","MEAN_ELEMENT_THEORY":"SGP4","EPHEMERIS_TYPE":"0","LAUNCH_DATE":"2021-05-09","PERIAPSIS":"546.023","RA_OF_ASC_NODE":"94.3261","TLE_LINE2":"2 48444  53.0561  94.3261 0001702  56.0392 304.0759 15.06403751 51990","FILE":"3403567","BSTAR":"-0.00001261900000","MEAN_ANOMALY":"304.0759","OBJECT_NAME":"STARLINK-2645","PERIOD":"95.592","SITE":"AFETR","SEMIMAJOR_AXIS":"6925.337","REF_FRAME":"TEME","TIME_SYSTEM":"UTC","DECAY_DATE":null,"RCS_SIZE":"LARGE","MEAN_MOTION_DOT":"-0.00000470","MEAN_MOTION_DDOT":"0.0000000000000","CLASSIFICATION_TYPE":"U","APOAPSIS":"548.381","INCLINATION":"53.0561","EPOCH":"2022-04-15T15:54:45.759168","ECCENTRICITY":"0.00017020","ARG_OF_PERICENTER":"56.0392"},{"EPOCH":"2022-04-15T15:49:27.363072","ARG_OF_PERICENTER":"42.5943","ECCENTRICITY":"0.00019980","APOAPSIS":"548.591","CLASSIFICATION_TYPE":"U","INCLINATION":"53.0549","DECAY_DATE":null,"RCS_SIZE":"LARGE","REF_FRAME":"TEME","TIME_SYSTEM":"UTC","MEAN_MOTION_DDOT":"0.0000000000000","MEAN_MOTION_DOT":"-0.00000805","SITE":"AFETR","OBJECT_NAME":"STARLINK-2634","PERIOD":"95.592","SEMIMAJOR_AXIS":"6925.343","FILE":"3403567","TLE_LINE2":"2 48445  53.0549  94.3449 0001998  42.5943 317.5200 15.06401881 51996","MEAN_ANOMALY":"317.5200","BSTAR":"-0.00003509900000","RA_OF_ASC_NODE":"94.3449","REV_AT_EPOCH":"5199","COUNTRY_CODE":"US","MEAN_ELEMENT_THEORY":"SGP4","PERIAPSIS":"545.824","EPHEMERIS_TYPE":"0","LAUNCH_DATE":"2021-05-09","TLE_LINE1":"1 48445U 21040T   22105.65934448 -.00000805  00000-0 -35099-4 0  9990","MEAN_MOTION":"15.06401881","NORAD_CAT_ID":"48445","GP_ID":"201340950","OBJECT_TYPE":"PAYLOAD","CENTER_NAME":"EARTH","ELEMENT_SET_NO":"999","OBJECT_ID":"2021-040T"},{"CENTER_NAME":"EARTH","ELEMENT_SET_NO":"999","OBJECT_ID":"2021-040U","MEAN_MOTION":"15.06403531","NORAD_CAT_ID":"48446","GP_ID":"201341200","OBJECT_TYPE":"PAYLOAD","TLE_LINE1":"1 48446U 21040U   22105.65565702 -.00000411  00000-0 -86704-5 0  9997","EPHEMERIS_TYPE":"0","LAUNCH_DATE":"2021-05-09","PERIAPSIS":"545.979","REV_AT_EPOCH":"5199","COUNTRY_CODE":"US","MEAN_ELEMENT_THEORY":"SGP4","RA_OF_ASC_NODE":"94.3564","MEAN_ANOMALY":"307.4565","BSTAR":"-0.00000867040000","TLE_LINE2":"2 48446  53.0559  94.3564 0001767  52.6585 307.4565 15.06403531 51990","FILE":"3403567","SEMIMAJOR_AXIS":"6925.338","OBJECT_NAME":"STARLINK-2247","PERIOD":"95.592","SITE":"AFETR","MEAN_MOTION_DOT":"-0.00000411","MEAN_MOTION_DDOT":"0.0000000000000","REF_FRAME":"TEME","TIME_SYSTEM":"UTC","DECAY_DATE":null,"RCS_SIZE":"LARGE","INCLINATION":"53.0559","APOAPSIS":"548.426","CLASSIFICATION_TYPE":"U","ARG_OF_PERICENTER":"52.6585","ECCENTRICITY":"0.00017670","EPOCH":"2022-04-15T15:44:08.766528"},{"TIME_SYSTEM":"UTC","REF_FRAME":"TEME","DECAY_DATE":null,"RCS_SIZE":"LARGE","MEAN_MOTION_DOT":"0.00002071","MEAN_MOTION_DDOT":"0.0000000000000","PERIOD":"95.592","OBJECT_NAME":"STARLINK-2269","SITE":"AFETR","SEMIMAJOR_AXIS":"6925.339","EPOCH":"2022-04-15T09:16:42.078432","ECCENTRICITY":"0.00017540","ARG_OF_PERICENTER":"61.1159","APOAPSIS":"548.418","CLASSIFICATION_TYPE":"U","INCLINATION":"53.0551","COUNTRY_CODE":"US","MEAN_ELEMENT_THEORY":"SGP4","REV_AT_EPOCH":"5195","LAUNCH_DATE":"2021-05-09","EPHEMERIS_TYPE":"0","PERIAPSIS":"545.989","TLE_LINE1":"1 48447U 21040V   22105.38659813  .00002071  00000-0  15791-3 0  9993","OBJECT_ID":"2021-040V","ELEMENT_SET_NO":"999","CENTER_NAME":"EARTH","OBJECT_TYPE":"PAYLOAD","GP_ID":"201306038","NORAD_CAT_ID":"48447","MEAN_MOTION":"15.06403205","TLE_LINE2":"2 48447  53.0551  95.5681 0001754  61.1159 299.0006 15.06403205 51954","FILE":"3403095","BSTAR":"0.00015791000000","MEAN_ANOMALY":"299.0006","RA_OF_ASC_NODE":"95.5681"},{"MEAN_MOTION_DOT":"0.00001995","MEAN_MOTION_DDOT":"0.0000000000000","DECAY_DATE":null,"RCS_SIZE":"LARGE","REF_FRAME":"TEME","TIME_SYSTEM":"UTC","SEMIMAJOR_AXIS":"6925.304","SITE":"AFETR","OBJECT_NAME":"STARLINK-2632","PERIOD":"95.591","ECCENTRICITY":"0.00017880","ARG_OF_PERICENTER":"50.1372","EPOCH":"2022-04-15T22:36:46.645056","INCLINATION":"53.0548","CLASSIFICATION_TYPE":"U","APOAPSIS":"548.407","PERIAPSIS":"545.931","EPHEMERIS_TYPE":"0","LAUNCH_DATE":"2021-05-09","REV_AT_EPOCH":"5203","COUNTRY_CODE":"US","MEAN_ELEMENT_THEORY":"SGP4","MEAN_MOTION":"15.06414481","NORAD_CAT_ID":"48448","OBJECT_TYPE":"PAYLOAD","GP_ID":"201342702","CENTER_NAME":"EARTH","ELEMENT_SET_NO":"999","OBJECT_ID":"2021-040W","TLE_LINE1":"1 48448U 21040W   22105.94220654  .00001995  00000-0  15276-3 0  9995","MEAN_ANOMALY":"309.9774","BSTAR":"0.00015276000000","FILE":"3403567","TLE_LINE2":"2 48448  53.0548  93.0737 0001788  50.1372 309.9774 15.06414481 52039","RA_OF_ASC_NODE":"93.0737"},{"REV_AT_EPOCH":"5193","MEAN_ELEMENT_THEORY":"SGP4","COUNTRY_CODE":"US","LAUNCH_DATE":"2021-05-09","EPHEMERIS_TYPE":"0","PERIAPSIS":"545.977","TLE_LINE1":"1 48449U 21040X   22105.25021326  .00003100  00000-0  22690-3 0  9993","ELEMENT_SET_NO":"999","CENTER_NAME":"EARTH","OBJECT_ID":"2021-040X","MEAN_MOTION":"15.06406646","NORAD_CAT_ID":"48449","GP_ID":"201307539","OBJECT_TYPE":"PAYLOAD","TLE_LINE2":"2 48449  53.0546  96.1770 0001756  55.6462 304.4692 15.06406646 51935","FILE":"3403095","MEAN_ANOMALY":"304.4692","BSTAR":"0.00022690000000","RA_OF_ASC_NODE":"96.1770","REF_FRAME":"TEME","TIME_SYSTEM":"UTC","DECAY_DATE":null,"RCS_SIZE":"LARGE","MEAN_MOTION_DOT":"0.00003100","MEAN_MOTION_DDOT":"0.0000000000000","OBJECT_NAME":"STARLINK-2655","PERIOD":"95.592","SITE":"AFETR","SEMIMAJOR_AXIS":"6925.328","EPOCH":"2022-04-15T06:00:18.425664","ECCENTRICITY":"0.00017560","ARG_OF_PERICENTER":"55.6462","CLASSIFICATION_TYPE":"U","APOAPSIS":"548.409","INCLINATION":"53.0546"}];
